OBJECT_NAME,OBJECT_ID,EPOCH,MEAN_MOTION,ECCENTRICITY,INCLINATION,RA_OF_ASC_NODE,ARG_OF_PERICENTER,MEAN_ANOMALY,EPHEMERIS_TYPE,CLASSIFICATION_TYPE,NORAD_CAT_ID,ELEMENT_SET_NO,REV_AT_EPOCH,BSTAR,MEAN_MOTION_DOT,MEAN_MOTION_DDOT
ASNARO-2,2018-007A,2026-06-25T14:22:49.541664,15.22408453,.00018674,97.3971,183.3947,93.9213,266.2237,0,U,43152,999,46869,.43416665E-3,.9969E-4,0
JILIN-1 07,2018-008E,2026-06-25T12:05:05.671104,15.34851831,.00091599,97.1770,196.2103,40.2462,319.9459,0,U,43159,999,46627,.31912115E-3,.10724E-3,0
JILIN-1 08,2018-008F,2026-06-25T12:13:27.490944,15.33800474,.00075675,97.1803,195.5236,57.1896,303.0075,0,U,43160,999,46622,.21949108E-3,.7104E-4,0
S-NET D,2018-014G,2026-06-25T05:55:26.626080,15.16741116,.00080696,97.5359,80.9868,4.5392,355.5913,0,U,43186,999,45998,.26706912E-3,.5175E-4,0
S-NET B,2018-014H,2026-06-25T04:37:09.636096,15.16711520,.00085195,97.5364,80.9199,358.9748,1.1466,0,U,43187,999,45997,.28042929E-3,.5433E-4,0
S-NET A,2018-014J,2026-06-25T05:53:45.860352,15.16749546,.00084302,97.5375,81.1828,359.7466,0.3761,0,U,43188,999,45998,.27286711E-3,.529E-4,0
S-NET C,2018-014K,2026-06-25T06:17:48.206400,15.16704186,.00095153,97.5390,81.2757,350.3386,9.7663,0,U,43189,999,45853,.28285906E-3,.548E-4,0
PAZ,2018-020A,2026-06-25T14:29:46.853664,15.19147953,.00017069,97.4448,183.8700,86.9852,273.1578,0,U,43215,999,46228,.8521337E-4,.1723E-4,0
GOES 17,2018-022A,2026-06-25T12:10:24.412800,1.00272912,.00006481,0.9581,85.5723,23.1564,258.0030,0,U,43226,999,3050,0,-.173E-5,0
LKW-4,2018-025A,2026-06-25T11:14:39.342624,15.62900315,.00022718,97.6342,347.9947,250.5330,109.5683,0,U,43236,999,46132,.5811907E-3,.52613E-3,0
ZHUHAI-1 OVS-02,2018-040B,2026-06-25T15:07:11.244864,15.25128973,.00027484,97.0387,193.3588,191.1230,168.9949,0,U,43440,999,45400,.33072611E-3,.8221E-4,0
ZHUHAI-1 OHS-02,2018-040C,2026-06-25T14:38:52.620864,15.25994287,.00091133,97.0371,200.2883,187.7935,172.3164,0,U,43441,999,11556,.37933284E-3,.9699E-4,0
GAOFEN-6,2018-048A,2026-06-25T06:30:00.402336,14.76428270,.00115428,98.0451,238.9314,139.2781,220.9293,0,U,43484,999,43458,.34259828E-4,.186E-5,0
LUOJIA-1 01,2018-048B,2026-06-25T14:00:49.905216,14.87317826,.00105849,97.8107,254.6372,93.5005,266.7422,0,U,43485,999,43546,.42725565E-3,.3806E-4,0
PAKTES 1A,2018-056A,2026-06-25T14:45:41.686848,14.99129517,.00213083,98.1283,333.4616,80.2261,280.1366,0,U,43529,999,43318,.13645885E-3,.1601E-4,0
PRSS-1,2018-056B,2026-06-25T15:06:38.130336,14.82002319,.00015428,97.7820,244.2661,76.5370,283.6015,0,U,43530,999,42968,.1712166E-3,.1307E-4,0
HAIYANG-1C,2018-068A,2026-06-25T14:48:27.334656,14.34181503,.00120795,98.5190,248.8036,71.8511,288.3988,0,U,43609,999,40829,.82816989E-4,.189E-5,0
SSTL S1-4,2018-071A,2026-06-25T13:57:54.852768,14.96171122,.00017198,97.5020,47.8462,116.3595,243.7804,0,U,43618,999,42419,.81525778E-4,.864E-5,0
HAIYANG-2B,2018-081A,2026-06-25T13:51:35.928288,13.79307334,.00000143,99.3288,185.2071,12.2670,347.8482,0,U,43655,999,38608,-.8671273E-4,-.133E-5,0
CFOSAT,2018-083A,2026-06-25T12:57:58.158144,15.16422313,.0002374,97.3604,180.8245,86.1485,274.0020,0,U,43662,999,42370,.19241505E-3,.3675E-4,0
TEN-KOH,2018-084G,2026-06-25T12:17:48.389568,15.02968303,.00113237,98.0758,9.2272,90.2418,270.0103,0,U,43677,999,41741,.11813193E-3,.1523E-4,0
DIWATA-2B,2018-084H,2026-06-25T13:44:19.332672,15.00485529,.00129834,98.1206,13.1462,143.8417,216.3685,0,U,43678,999,41747,.16839538E-3,.2058E-4,0
STARS-AO,2018-084J,2026-06-25T12:23:08.625120,15.17137426,.00033968,98.0501,31.0010,119.7928,240.3642,0,U,43679,999,41873,.34743631E-3,.6819E-4,0
AUTCUBE 2,2018-084K,2026-06-25T12:18:48.282048,15.10142893,.00093891,98.0706,23.1289,23.9985,336.1679,0,U,43681,999,41818,.27163675E-3,.4364E-4,0
METOP-C,2018-087A,2026-06-25T12:20:55.337568,14.21514197,.0002021,98.6641,235.9658,118.8760,241.2621,0,U,43689,999,39601,.61139914E-4,.9E-6,0
ES'HAIL 2,2018-090A,2026-06-25T07:35:17.054304,1.00273905,.0002175,0.0181,336.2990,153.2886,283.4885,0,U,43700,999,2775,0,.154E-5,0
MOHAMMED VI-B,2018-095A,2026-06-25T13:50:30.226272,14.77059438,.000152,97.9556,248.7871,98.9022,261.2360,0,U,43717,999,40942,.17364692E-3,.1175E-4,0
HYSIS,2018-096A,2026-06-25T14:27:54.358272,14.78631484,.00018574,97.9839,243.2853,93.9288,266.2136,0,U,43719,999,40866,.16359334E-3,.1146E-4,0
COSMOS 2530 (RODNIK-S 16),2018-097A,2026-06-25T14:05:56.887008,12.42881233,.00198421,82.5136,217.0675,21.8487,338.3435,0,U,43751,999,34333,.10097191E-3,.24E-6,0
