ASNARO-2                
1 43152U 18007A   26176.59918451  .00009969  00000+0  43417-3 0  9999
2 43152  97.3971 183.3947 0001867  93.9213 266.2237 15.22408453468692
JILIN-1 07              
1 43159U 18008E   26176.50353786  .00010724  00000+0  31912-3 0  9990
2 43159  97.1770 196.2103 0009159  40.2462 319.9459 15.34851831466273
JILIN-1 08              
1 43160U 18008F   26176.50934596  .00007104  00000+0  21949-3 0  9993
2 43160  97.1803 195.5236 0007567  57.1896 303.0075 15.33800474466229
S-NET D                 
1 43186U 18014G   26176.24683595  .00005175  00000+0  26707-3 0  9992
2 43186  97.5359  80.9868 0008069   4.5392 355.5913 15.16741116459986
S-NET B                 
1 43187U 18014H   26176.19247264  .00005433  00000+0  28043-3 0  9998
2 43187  97.5364  80.9199 0008519 358.9748   1.1466 15.16711520459973
S-NET A                 
1 43188U 18014J   26176.24566968  .00005290  00000+0  27287-3 0  9990
2 43188  97.5375  81.1828 0008430 359.7466   0.3761 15.16749546459985
S-NET C                 
1 43189U 18014K   26176.26236350  .00005480  00000+0  28286-3 0  9993
2 43189  97.5390  81.2757 0009515 350.3386   9.7663 15.16704186458533
PAZ                     
1 43215U 18020A   26176.60401451  .00001723  00000+0  85213-4 0  9994
2 43215  97.4448 183.8700 0001706  86.9852 273.1578 15.19147953462282
GOES 17                 
1 43226U 18022A   26176.50722700 -.00000173  00000+0  00000+0 0  9995
2 43226   0.9581  85.5723 0000648  23.1564 258.0030  1.00272912 30501
LKW-4                   
1 43236U 18025A   26176.46851091  .00052613  00000+0  58119-3 0  9993
2 43236  97.6342 347.9947 0002271 250.5330 109.5683 15.62900315461324
ZHUHAI-1 OVS-02         
1 43440U 18040B   26176.62999126  .00008221  00000+0  33073-3 0  9995
2 43440  97.0387 193.3588 0002748 191.1230 168.9949 15.25128973454008
ZHUHAI-1 OHS-02         
1 43441U 18040C   26176.61033126  .00009699  00000+0  37933-3 0  9993
2 43441  97.0371 200.2883 0009113 187.7935 172.3164 15.25994287115566
GAOFEN-6                
1 43484U 18048A   26176.27083799  .00000186  00000+0  34260-4 0  9994
2 43484  98.0451 238.9314 0011542 139.2781 220.9293 14.76428270434588
LUOJIA-1 01             
1 43485U 18048B   26176.58391094  .00003806  00000+0  42726-3 0  9996
2 43485  97.8107 254.6372 0010584  93.5005 266.7422 14.87317826435465
PAKTES 1A               
1 43529U 18056A   26176.61506582  .00001601  00000+0  13646-3 0  9998
2 43529  98.1283 333.4616 0021308  80.2261 280.1366 14.99129517433188
PRSS-1                  
1 43530U 18056B   26176.62960799  .00001307  00000+0  17122-3 0  9991
2 43530  97.7820 244.2661 0001542  76.5370 283.6015 14.82002319429689
HAIYANG-1C              
1 43609U 18068A   26176.61698304  .00000189  00000+0  82817-4 0  9991
2 43609  98.5190 248.8036 0012079  71.8511 288.3988 14.34181503408298
SSTL S1-4               
1 43618U 18071A   26176.58188487  .00000864  00000+0  81526-4 0  9993
2 43618  97.5020  47.8462 0001719 116.3595 243.7804 14.96171122424198
HAIYANG-2B              
1 43655U 18081A   26176.57749917 -.00000133  00000+0 -86713-4 0  9999
2 43655  99.3288 185.2071 0000014  12.2670 347.8482 13.79307334386082
CFOSAT                  
1 43662U 18083A   26176.54025646  .00003675  00000+0  19242-3 0  9996
2 43662  97.3604 180.8245 0002374  86.1485 274.0020 15.16422313423707
TEN-KOH                 
1 43677U 18084G   26176.51236562  .00001523  00000+0  11813-3 0  9997
2 43677  98.0758   9.2272 0011323  90.2418 270.0103 15.02968303417419
DIWATA-2B               
1 43678U 18084H   26176.57244598  .00002058  00000+0  16840-3 0  9991
2 43678  98.1206  13.1462 0012983 143.8417 216.3685 15.00485529417477
STARS-AO                
1 43679U 18084J   26176.51607205  .00006819  00000+0  34744-3 0  9996
2 43679  98.0501  31.0010 0003396 119.7928 240.3642 15.17137426418738
AUTCUBE 2               
1 43681U 18084K   26176.51305882  .00004364  00000+0  27164-3 0  9996
2 43681  98.0706  23.1289 0009389  23.9985 336.1679 15.10142893418185
METOP-C                 
1 43689U 18087A   26176.51452937  .00000090  00000+0  61140-4 0  9996
2 43689  98.6641 235.9658 0002021 118.8760 241.2621 14.21514197396012
ES'HAIL 2               
1 43700U 18090A   26176.31616961  .00000154  00000+0  00000+0 0  9995
2 43700   0.0181 336.2990 0002175 153.2886 283.4885  1.00273905 27752
MOHAMMED VI-B           
1 43717U 18095A   26176.57673873  .00001175  00000+0  17365-3 0  9991
2 43717  97.9556 248.7871 0001520  98.9022 261.2360 14.77059438409427
HYSIS                   
1 43719U 18096A   26176.60271248  .00001146  00000+0  16359-3 0  9998
2 43719  97.9839 243.2853 0001857  93.9288 266.2136 14.78631484408664
COSMOS 2530 (RODNIK-S *)
1 43751U 18097A   26176.58746397  .00000024  00000+0  10097-3 0  9991
2 43751  82.5136 217.0675 0019842  21.8487 338.3435 12.42881233343338
